     2              NAVIGATION DATA                         RINEX VERSION / TYPE
CCRINEXN V1.6.0 UX  CDDIS               04-DEC-16 17:31     PGM / RUN BY / DATE 
IGS BROADCAST EPHEMERIS FILE                                COMMENT             
    0.1024D-07 -0.1490D-07 -0.5960D-07  0.1192D-06          ION ALPHA           
    0.9830D+05 -0.1475D+06 -0.1966D+06  0.8520D+06          ION BETA            
    0.279396772385D-08 0.621724893790D-14   147456     1926 DELTA-UTC: A0,A1,T,W
    17                                                      LEAP SECONDS        
                                                            END OF HEADER       
12 16 12  3 22  0  0.0 0.389473512769D-03 0.000000000000D+00 0.000000000000D+00
    0.620000000000D+02 0.604687500000D+02 0.404981154805D-08 0.196114982416D+00
    0.314787030220D-05 0.612980930600D-02 0.331364572048D-05 0.515362046242D+04
    0.597600000000D+06 0.223517417908D-07-0.130644524218D+01 0.145286321640D-06
    0.989707908187D+00 0.330218750000D+03 0.779811879049D+00-0.810033741157D-08
    0.785747015231D-10 0.100000000000D+01 0.192500000000D+04 0.000000000000D+00
    0.200000000000D+01 0.000000000000D+00-0.125728547573D-07 0.620000000000D+02
    0.590400000000D+06 0.400000000000D+01 0.000000000000D+00 0.000000000000D+00
13 16 12  3 22  0  0.0-0.581727363169D-04-0.193267624127D-11 0.000000000000D+00
    0.850000000000D+02-0.134375000000D+01 0.448768693017D-08 0.182013194856D+01
   -0.111758708954D-06 0.404621427879D-02 0.789202749729D-05 0.515368600464D+04
    0.597600000000D+06 0.242143869400D-07 0.294152658838D+01-0.465661287308D-07
    0.970656861469D+00 0.232843750000D+03 0.188117233708D+01-0.786354183379D-08
   -0.410374236591D-09 0.100000000000D+01 0.192500000000D+04 0.000000000000D+00
    0.200000000000D+01 0.000000000000D+00-0.111758708954D-07 0.850000000000D+02
    0.590400000000D+06 0.400000000000D+01 0.000000000000D+00 0.000000000000D+00
14 16 12  3 22  0  0.0-0.478979200125D-04-0.170530256582D-11 0.000000000000D+00
    0.200000000000D+02-0.109375000000D+01 0.466233706220D-08-0.313213379833D+01
   -0.521540641785D-07 0.864779704716D-02 0.740028917789D-05 0.515360210609D+04
    0.597600000000D+06 0.119209289551D-06 0.290326245921D+01-0.115483999252D-06
    0.963133252263D+00 0.236125000000D+03-0.194723709872D+01-0.785104131310D-08
   -0.400730977768D-09 0.100000000000D+01 0.192500000000D+04 0.000000000000D+00
    0.200000000000D+01 0.000000000000D+00-0.931322574616D-08 0.200000000000D+02
    0.590400000000D+06 0.400000000000D+01 0.000000000000D+00 0.000000000000D+00
15 16 12  3 22  0  0.0-0.336341559887D-03-0.125055521494D-11 0.000000000000D+00
    0.790000000000D+02-0.104062500000D+02 0.550665794584D-08 0.278293242353D+01
   -0.553205609322D-06 0.888426369056D-02 0.683590769768D-05 0.515370667076D+04
    0.597600000000D+06-0.108033418655D-06 0.276075607177D+01-0.100582838059D-06
    0.929964952453D+00 0.232375000000D+03 0.541993631387D+00-0.828463080241D-08
   -0.331442377334D-09 0.100000000000D+01 0.192500000000D+04 0.000000000000D+00
    0.200000000000D+01 0.000000000000D+00-0.107102096081D-07 0.790000000000D+02
    0.590400000000D+06 0.400000000000D+01 0.000000000000D+00 0.000000000000D+00
16 16 12  3 22  0  0.0 0.180294737220D-04 0.147792889038D-11 0.000000000000D+00
    0.610000000000D+02 0.660625000000D+02 0.393159238499D-08-0.174646704661D+01
    0.338815152645D-05 0.883007771336D-02 0.379793345928D-05 0.515360791397D+04
    0.597600000000D+06 0.279396772385D-07-0.128761379995D+01-0.130385160446D-06
    0.990201956103D+00 0.322625000000D+03 0.381140868779D+00-0.793747378935D-08
    0.237152741889D-09 0.100000000000D+01 0.192500000000D+04 0.000000000000D+00
    0.200000000000D+01 0.000000000000D+00-0.102445483208D-07 0.610000000000D+02
    0.590400000000D+06 0.000000000000D+00 0.000000000000D+00 0.000000000000D+00
17 16 12  3 22  0  0.0-0.197831541300D-03 0.909494701773D-12 0.000000000000D+00
    0.360000000000D+02-0.941562500000D+02 0.399445209925D-08-0.279103143645D+01
   -0.477023422718D-05 0.115568150068D-01 0.435113906860D-05 0.515378357887D+04
    0.597600000000D+06 0.141561031342D-06-0.268116689874D+00-0.782310962677D-07
    0.978600013636D+00 0.303812500000D+03-0.190519208850D+01-0.778961018282D-08
   -0.942896418278D-10 0.100000000000D+01 0.192500000000D+04 0.000000000000D+00
    0.200000000000D+01 0.000000000000D+00-0.107102096081D-07 0.360000000000D+02
    0.590400000000D+06 0.400000000000D+01 0.000000000000D+00 0.000000000000D+00
18 16 12  3 22  0  0.0 0.581183470786D-03 0.306954461848D-11 0.000000000000D+00
    0.400000000000D+02 0.245312500000D+02 0.565059251272D-08-0.118446465016D+01
    0.166520476341D-05 0.173146264860D-01 0.717863440514D-05 0.515372428894D+04
    0.597600000000D+06 0.242143869400D-07 0.174044330148D+01 0.486150383949D-06
    0.924772610000D+00 0.223031250000D+03-0.184816064265D+01-0.860821570959D-08
    0.413588656199D-09 0.100000000000D+01 0.192500000000D+04 0.000000000000D+00
    0.200000000000D+01 0.000000000000D+00-0.111758708954D-07 0.400000000000D+02
    0.590400000000D+06 0.400000000000D+01 0.000000000000D+00 0.000000000000D+00
19 16 12  3 22  0  0.0-0.518806744367D-03 0.795807864051D-12 0.000000000000D+00
    0.340000000000D+02-0.862812500000D+02 0.409909931537D-08 0.393026459358D+00
   -0.438466668129D-05 0.102709233761D-01 0.504404306412D-05 0.515364063263D+04
    0.597600000000D+06-0.149011611938D-06-0.219866654100D+00 0.152736902237D-06
    0.975797419548D+00 0.292093750000D+03 0.894190521139D+00-0.810926635492D-08
   -0.179293182566D-09 0.100000000000D+01 0.192500000000D+04 0.000000000000D+00
    0.200000000000D+01 0.000000000000D+00-0.149011611938D-07 0.340000000000D+02
    0.590400000000D+06 0.400000000000D+01 0.000000000000D+00 0.000000000000D+00
20 16 12  3 22  0  0.0 0.449045095593D-03 0.181898940355D-11 0.000000000000D+00
    0.240000000000D+02 0.234062500000D+02 0.552165857067D-08 0.267487783586D+01
    0.108405947685D-05 0.476489053108D-02 0.727735459805D-05 0.515360511017D+04
    0.597600000000D+06 0.335276126862D-07 0.168885927394D+01-0.931322574616D-08
    0.926091200970D+00 0.220843750000D+03 0.150640382827D+01-0.836892002768D-08
    0.418588864478D-09 0.100000000000D+01 0.192500000000D+04 0.000000000000D+00
    0.200000000000D+01 0.000000000000D+00-0.838190317154D-08 0.240000000000D+02
    0.590400000000D+06 0.400000000000D+01 0.000000000000D+00 0.000000000000D+00
21 16 12  3 22  0  0.0-0.529832206667D-03 0.113686837722D-11 0.000000000000D+00
    0.101000000000D+03-0.599687500000D+02 0.488020328006D-08-0.252791876905D+00
   -0.308081507683D-05 0.234819694888D-01 0.106412917376D-04 0.515378575516D+04
    0.597600000000D+06-0.305473804474D-06 0.699054514724D+00 0.268220901489D-06
    0.938152308072D+00 0.167968750000D+03-0.173780899125D+01-0.855214194532D-08
    0.293226499775D-09 0.100000000000D+01 0.192500000000D+04 0.000000000000D+00
    0.280000000000D+01 0.000000000000D+00-0.977888703346D-08 0.101000000000D+03
    0.590400000000D+06 0.400000000000D+01 0.000000000000D+00 0.000000000000D+00
22 16 12  3 22  0  0.0 0.172342173755D-03-0.109139364213D-10 0.000000000000D+00
    0.890000000000D+02 0.149062500000D+02 0.559701885259D-08 0.303806528828D+01
    0.586733222008D-06 0.730058574118D-02 0.723265111446D-05 0.515365091896D+04
    0.597600000000D+06 0.134110450745D-06 0.174067971928D+01-0.100582838059D-06
    0.922746364593D+00 0.220937500000D+03-0.184153461853D+01-0.832927551919D-08
    0.410731394326D-09 0.100000000000D+01 0.192500000000D+04 0.000000000000D+00
    0.200000000000D+01 0.000000000000D+00-0.176951289177D-07 0.890000000000D+02
    0.591720000000D+06 0.400000000000D+01 0.000000000000D+00 0.000000000000D+00
23 16 12  3 22  0  0.0-0.198662746698D-03-0.113686837722D-11 0.000000000000D+00
    0.340000000000D+02-0.496875000000D+01 0.519378762220D-08 0.232778588944D+01
   -0.312924385071D-06 0.111329321517D-01 0.697746872902D-05 0.515357065391D+04
    0.597600000000D+06-0.199303030968D-06 0.282144519611D+01-0.173225998878D-06
    0.945242678477D+00 0.240312500000D+03-0.252132147518D+01-0.817926970598D-08
   -0.284297557718D-09 0.100000000000D+01 0.192500000000D+04 0.000000000000D+00
    0.200000000000D+01 0.000000000000D+00-0.200234353542D-07 0.340000000000D+02
    0.590400000000D+06 0.000000000000D+00 0.000000000000D+00 0.000000000000D+00
24 16 12  3 22  0  0.0-0.270027667284D-04-0.568434188608D-12 0.000000000000D+00
    0.650000000000D+02 0.710000000000D+02 0.471519640686D-08 0.172169706983D+01
    0.378116965294D-05 0.510985020082D-02 0.969134271145D-05 0.515372027588D+04
    0.597600000000D+06-0.149011611938D-07-0.243755123400D+01 0.147148966789D-06
    0.947608386710D+00 0.185562500000D+03 0.403385960130D+00-0.809069415274D-08
   -0.253939149013D-09 0.100000000000D+01 0.192500000000D+04 0.000000000000D+00
    0.200000000000D+01 0.000000000000D+00 0.232830643654D-08 0.650000000000D+02
    0.591780000000D+06 0.400000000000D+01 0.000000000000D+00 0.000000000000D+00
25 16 12  3 22  0  0.0-0.293292570859D-03-0.682121026330D-11 0.000000000000D+00
    0.380000000000D+02 0.711875000000D+02 0.430196490839D-08-0.340690158381D+00
    0.366196036339D-05 0.575994874816D-02 0.340305268765D-05 0.515366713715D+04
    0.597600000000D+06 0.521540641785D-07-0.135964986697D+01 0.745058059692D-07
    0.977777176344D+00 0.321000000000D+03 0.756086042498D+00-0.826141554969D-08
    0.921466954226D-10 0.100000000000D+01 0.192500000000D+04 0.000000000000D+00
    0.200000000000D+01 0.000000000000D+00 0.558793544769D-08 0.380000000000D+02
    0.597330000000D+06 0.400000000000D+01 0.000000000000D+00 0.000000000000D+00
